FLOCK 4H-34             
1 66737U 25276BZ  26202.20452783  .00005093  00000+0  23352-3 0  9998
2 66737  97.4221 275.5280 0003117 154.9712 205.1675 15.20887716 34857
FLOCK 4H-35             
1 66738U 25276CA  26202.17982135  .00004444  00000+0  20349-3 0  9996
2 66738  97.4179 275.4394 0003023 139.8234 220.3225 15.20999733 34899
FLOCK 4H-36             
1 66739U 25276CB  26202.15348754  .00005259  00000+0  24186-3 0  9996
2 66739  97.4228 275.4700 0003182 167.1508 192.9809 15.20766926 35596
