{"fetched_at":"2026-07-21T17:53:07.094Z","source":"https://celestrak.org/NORAD/elements/gp.php?GROUP=planet&FORMAT=JSON","constellation":"superdove","records":[{"OBJECT_NAME":"FLOCK 4H-34","OBJECT_ID":"2025-276BZ","EPOCH":"2026-07-21T04:54:31.204512","CLASSIFICATION_TYPE":"U","MEAN_MOTION":15.20887716,"ECCENTRICITY":0.00031177,"INCLINATION":97.4221,"RA_OF_ASC_NODE":275.528,"ARG_OF_PERICENTER":154.9712,"MEAN_ANOMALY":205.1675,"EPHEMERIS_TYPE":0,"NORAD_CAT_ID":66737,"ELEMENT_SET_NO":999,"REV_AT_EPOCH":3485,"BSTAR":0.00023351969,"MEAN_MOTION_DOT":0.00005093,"MEAN_MOTION_DDOT":0},{"OBJECT_NAME":"FLOCK 4H-35","OBJECT_ID":"2025-276CA","EPOCH":"2026-07-21T04:18:56.564640","CLASSIFICATION_TYPE":"U","MEAN_MOTION":15.20999733,"ECCENTRICITY":0.00030237,"INCLINATION":97.4179,"RA_OF_ASC_NODE":275.4394,"ARG_OF_PERICENTER":139.8234,"MEAN_ANOMALY":220.3225,"EPHEMERIS_TYPE":0,"NORAD_CAT_ID":66738,"ELEMENT_SET_NO":999,"REV_AT_EPOCH":3489,"BSTAR":0.00020349128,"MEAN_MOTION_DOT":0.00004444,"MEAN_MOTION_DDOT":0},{"OBJECT_NAME":"FLOCK 4H-36","OBJECT_ID":"2025-276CB","EPOCH":"2026-07-21T03:41:01.323456","CLASSIFICATION_TYPE":"U","MEAN_MOTION":15.20766926,"ECCENTRICITY":0.00031829,"INCLINATION":97.4228,"RA_OF_ASC_NODE":275.47,"ARG_OF_PERICENTER":167.1508,"MEAN_ANOMALY":192.9809,"EPHEMERIS_TYPE":0,"NORAD_CAT_ID":66739,"ELEMENT_SET_NO":999,"REV_AT_EPOCH":3559,"BSTAR":0.00024185521,"MEAN_MOTION_DOT":0.00005259,"MEAN_MOTION_DDOT":0}]}
